OBJECT_NAME,OBJECT_ID,EPOCH,MEAN_MOTION,ECCENTRICITY,INCLINATION,RA_OF_ASC_NODE,ARG_OF_PERICENTER,MEAN_ANOMALY,EPHEMERIS_TYPE,CLASSIFICATION_TYPE,NORAD_CAT_ID,ELEMENT_SET_NO,REV_AT_EPOCH,BSTAR,MEAN_MOTION_DOT,MEAN_MOTION_DDOT
ONEWEB-0015,2024-188A,2026-07-10T23:04:31.145376,13.11417014,.0001626,87.8876,16.3581,72.3684,287.7621,0,U,61594,999,8757,.15202E-2,.552E-5,0
ONEWEB-0687,2024-188B,2026-07-09T11:31:18.934464,13.17649562,.00020543,87.9128,1.4402,77.2742,282.8619,0,U,61595,999,8883,.89078304E-4,.47E-6,0
ONEWEB-0688,2024-188C,2026-07-10T10:04:47.113536,13.17650555,.00014777,87.9131,1.2530,49.9009,310.2252,0,U,61596,999,8895,.56181876E-4,.35E-6,0
ONEWEB-0689,2024-188D,2026-07-10T11:04:15.091392,13.11415969,.0002145,87.8889,16.4192,85.6409,274.4964,0,U,61597,999,8750,-.13330386E-2,-.46E-5,0
ONEWEB-0690,2024-188E,2026-07-10T11:18:54.599328,13.11417480,.00014212,87.8884,16.4287,104.8962,255.2323,0,U,61598,999,8768,-.12035376E-2,-.414E-5,0
ONEWEB-0691,2024-188F,2026-07-10T11:11:34.950336,13.11416158,.00017715,87.8898,16.3395,77.0368,283.0957,0,U,61599,999,8753,-.13901888E-2,-.48E-5,0
ONEWEB-0692,2024-188G,2026-07-10T22:40:05.534400,13.11419676,.0002561,87.8878,16.3531,98.5420,261.5998,0,U,61600,999,8758,.89373E-4,.44E-6,0
ONEWEB-0693,2024-188H,2026-07-10T10:21:48.658752,13.17649765,.00012489,87.9124,1.2694,111.5300,248.5965,0,U,61601,999,8894,.34556165E-4,.26E-6,0
ONEWEB-0695,2024-188J,2026-07-10T11:06:42.087168,13.11415989,.00023561,87.8879,16.4409,89.8082,270.3316,0,U,61602,999,8751,-.13431063E-2,-.463E-5,0
ONEWEB-0697,2024-188K,2026-07-10T11:53:06.645120,13.11417913,.0002494,87.8880,16.4250,100.4542,259.6867,0,U,61603,999,8750,.12078E-2,.441E-5,0
ONEWEB-0698,2024-188L,2026-07-10T11:21:21.273696,13.11417793,.00022399,87.8873,16.4430,120.8689,239.2659,0,U,61604,999,8752,-.10597392E-2,-.363E-5,0
ONEWEB-0699,2024-188M,2026-07-10T12:06:09.632160,13.10369389,.0002263,87.8816,31.6195,99.7865,260.3517,0,U,61605,999,8636,-.87585E-3,-.293E-5,0
ONEWEB-0700,2024-188N,2026-07-10T12:08:34.821312,13.10371904,.0002555,87.8819,31.5308,98.6442,261.4974,0,U,61606,999,8635,-.19552E-2,-.67E-5,0
ONEWEB-0701,2024-188P,2026-07-10T23:32:46.620960,13.10376032,.0002471,87.8821,31.5246,101.9540,258.1864,0,U,61607,999,8642,-.7007E-3,-.232E-5,0
ONEWEB-0702,2024-188Q,2026-07-09T23:38:12.935616,13.11414064,.00028195,87.8895,16.4505,98.3384,261.8064,0,U,61608,999,8747,.68013317E-4,.37E-6,0
ONEWEB-0704,2024-188R,2026-07-10T23:15:38.841120,13.10372095,.0002852,87.8821,31.5172,93.3388,266.8066,0,U,61609,999,8640,-.16199E-2,-.553E-5,0
ONEWEB-0705,2024-188S,2026-07-10T23:22:59.759328,13.10374085,.0002767,87.8826,31.5218,77.1067,283.0369,0,U,61610,999,7857,-.17051E-2,-.583E-5,0
ONEWEB-0706,2024-188T,2026-07-10T12:01:16.185792,13.10374429,.0002123,87.8838,31.6208,87.7367,272.4003,0,U,61611,999,8643,-.43338E-2,-.15E-4,0
ONEWEB-0707,2024-188U,2026-07-10T23:10:45.047424,13.10372694,.0003004,87.8832,31.5228,94.5551,265.5920,0,U,61612,999,8643,-.30383E-2,-.1048E-4,0
ONEWEB-0708,2024-188V,2026-07-10T23:37:38.881056,13.10376641,.0002091,87.8816,31.5347,73.1444,286.9913,0,U,61613,999,8641,-.13869E-2,-.471E-5,0
