ONEWEB-0015             
1 61594U 24188A   26191.96147159  .00000552  00000+0  15202-2 0  9992
2 61594  87.8876  16.3581 0001626  72.3684 287.7621 13.11417014 87573
ONEWEB-0687             
1 61595U 24188B   26190.48008026  .00000047  00000+0  89078-4 0  9991
2 61595  87.9128   1.4402 0002054  77.2742 282.8619 13.17649562 88831
ONEWEB-0688             
1 61596U 24188C   26191.41998974  .00000035  00000+0  56182-4 0  9993
2 61596  87.9131   1.2530 0001477  49.9009 310.2252 13.17650555 88952
ONEWEB-0689             
1 61597U 24188D   26191.46128578 -.00000460  00000+0 -13330-2 0  9994
2 61597  87.8889  16.4192 0002145  85.6409 274.4964 13.11415969 87501
ONEWEB-0690             
1 61598U 24188E   26191.47146527 -.00000414  00000+0 -12035-2 0  9990
2 61598  87.8884  16.4287 0001421 104.8962 255.2323 13.11417480 87681
ONEWEB-0691             
1 61599U 24188F   26191.46637674 -.00000480  00000+0 -13902-2 0  9995
2 61599  87.8898  16.3395 0001771  77.0368 283.0957 13.11416158 87532
ONEWEB-0692             
1 61600U 24188G   26191.94450850  .00000044  00000+0  89373-4 0  9991
2 61600  87.8878  16.3531 0002561  98.5420 261.5998 13.11419676 87589
ONEWEB-0693             
1 61601U 24188H   26191.43181318  .00000026  00000+0  34556-4 0  9999
2 61601  87.9124   1.2694 0001248 111.5300 248.5965 13.17649765 88942
ONEWEB-0695             
1 61602U 24188J   26191.46298712 -.00000463  00000+0 -13431-2 0  9994
2 61602  87.8879  16.4409 0002356  89.8082 270.3316 13.11415989 87514
ONEWEB-0697             
1 61603U 24188K   26191.49521580  .00000441  00000+0  12078-2 0  9990
2 61603  87.8880  16.4250 0002494 100.4542 259.6867 13.11417913 87504
ONEWEB-0698             
1 61604U 24188L   26191.47316289 -.00000363  00000+0 -10597-2 0  9996
2 61604  87.8873  16.4430 0002239 120.8689 239.2659 13.11417793 87523
ONEWEB-0699             
1 61605U 24188M   26191.50427815 -.00000293  00000+0 -87585-3 0  9993
2 61605  87.8816  31.6195 0002263  99.7865 260.3517 13.10369389 86360
ONEWEB-0700             
1 61606U 24188N   26191.50595858 -.00000670  00000+0 -19552-2 0  9994
2 61606  87.8819  31.5308 0002555  98.6442 261.4974 13.10371904 86356
ONEWEB-0701             
1 61607U 24188P   26191.98109515 -.00000232  00000+0 -70070-3 0  9995
2 61607  87.8821  31.5246 0002471 101.9540 258.1864 13.10376032 86421
ONEWEB-0702             
1 61608U 24188Q   26190.98487194  .00000037  00000+0  68013-4 0  9993
2 61608  87.8895  16.4505 0002819  98.3384 261.8064 13.11414064 87472
ONEWEB-0704             
1 61609U 24188R   26191.96919955 -.00000553  00000+0 -16199-2 0  9999
2 61609  87.8821  31.5172 0002852  93.3388 266.8066 13.10372095 86401
ONEWEB-0705             
1 61610U 24188S   26191.97430277 -.00000583  00000+0 -17051-2 0  9998
2 61610  87.8826  31.5218 0002767  77.1067 283.0369 13.10374085 78575
ONEWEB-0706             
1 61611U 24188T   26191.50088178 -.00001500  00000+0 -43338-2 0  9994
2 61611  87.8838  31.6208 0002123  87.7367 272.4003 13.10374429 86438
ONEWEB-0707             
1 61612U 24188U   26191.96579916 -.00001048  00000+0 -30383-2 0  9993
2 61612  87.8832  31.5228 0003004  94.5551 265.5920 13.10372694 86437
ONEWEB-0708             
1 61613U 24188V   26191.98447779 -.00000471  00000+0 -13869-2 0  9996
2 61613  87.8816  31.5347 0002091  73.1444 286.9913 13.10376641 86414
